start=new Date('2022-01-18T00:00:00.000Z').valueOf();
sats=[{"OBJECT_NAME":"STARLINK-3042","COUNTRY_CODE":"US","APOAPSIS":"362.171","RCS_SIZE":"LARGE","MEAN_ANOMALY":"80.0826","CLASSIFICATION_TYPE":"U","REF_FRAME":"TEME","SITE":"AFWTR","ELEMENT_SET_NO":"999","PERIOD":"91.735","INCLINATION":"69.9981","TLE_LINE2":"2 49142  69.9981 133.2846 0003745 292.0417  80.0826 15.69738386  3682","GP_ID":"194090945","REV_AT_EPOCH":"368","TLE_LINE1":"1 49142U 21082N   22017.91667824 -.00021352  00000-0 -17760-3 0  9997","LAUNCH_DATE":"2021-09-14","MEAN_ELEMENT_THEORY":"SGP4","EPHEMERIS_TYPE":"0","OBJECT_ID":"2021-082N","MEAN_MOTION_DDOT":"0.0000000000000","MEAN_MOTION_DOT":"-0.00021352","PERIAPSIS":"357.124","BSTAR":"-0.00017760000000","SEMIMAJOR_AXIS":"6737.783","OBJECT_TYPE":"PAYLOAD","NORAD_CAT_ID":"49142","EPOCH":"2022-01-17T22:00:00.999936","DECAY_DATE":null,"TIME_SYSTEM":"UTC","FILE":"3276075","MEAN_MOTION":"15.69738386","ECCENTRICITY":"0.00037450","ARG_OF_PERICENTER":"292.0417","RA_OF_ASC_NODE":"133.2846","CENTER_NAME":"EARTH"},{"ECCENTRICITY":"0.00041270","CENTER_NAME":"EARTH","RA_OF_ASC_NODE":"133.2834","ARG_OF_PERICENTER":"290.7829","FILE":"3276075","MEAN_MOTION":"15.69771502","TIME_SYSTEM":"UTC","DECAY_DATE":null,"NORAD_CAT_ID":"49143","EPOCH":"2022-01-17T22:00:00.999936","BSTAR":"-0.00018327000000","OBJECT_TYPE":"PAYLOAD","SEMIMAJOR_AXIS":"6737.688","PERIAPSIS":"356.772","OBJECT_ID":"2021-082P","LAUNCH_DATE":"2021-09-14","MEAN_ELEMENT_THEORY":"SGP4","EPHEMERIS_TYPE":"0","MEAN_MOTION_DOT":"-0.00022057","MEAN_MOTION_DDOT":"0.0000000000000","TLE_LINE1":"1 49143U 21082P   22017.91667824 -.00022057  00000-0 -18327-3 0  9991","REV_AT_EPOCH":"368","GP_ID":"194089194","TLE_LINE2":"2 49143  69.9981 133.2834 0004127 290.7829  83.4053 15.69771502  3683","SITE":"AFWTR","PERIOD":"91.733","ELEMENT_SET_NO":"999","INCLINATION":"69.9981","CLASSIFICATION_TYPE":"U","MEAN_ANOMALY":"83.4053","RCS_SIZE":"LARGE","REF_FRAME":"TEME","APOAPSIS":"362.333","COUNTRY_CODE":"US","OBJECT_NAME":"STARLINK-3109"},{"REV_AT_EPOCH":"356","TLE_LINE1":"1 49144U 21082Q   22017.91667824 -.00035360  00000-0 -29702-2 0  9991","LAUNCH_DATE":"2021-09-14","EPHEMERIS_TYPE":"0","MEAN_ELEMENT_THEORY":"SGP4","OBJECT_ID":"2021-082Q","MEAN_MOTION_DDOT":"0.0000000000000","MEAN_MOTION_DOT":"-0.00035360","SITE":"AFWTR","PERIOD":"96.107","ELEMENT_SET_NO":"999","INCLINATION":"70.0011","TLE_LINE2":"2 49144  70.0011 146.1700 0003316 277.8735  47.5979 14.98334694  3560","GP_ID":"194089444","APOAPSIS":"574.348","RCS_SIZE":"LARGE","MEAN_ANOMALY":"47.5979","CLASSIFICATION_TYPE":"U","REF_FRAME":"TEME","OBJECT_NAME":"STARLINK-3100","COUNTRY_CODE":"US","ECCENTRICITY":"0.00033160","RA_OF_ASC_NODE":"146.1700","ARG_OF_PERICENTER":"277.8735","CENTER_NAME":"EARTH","TIME_SYSTEM":"UTC","FILE":"3276075","MEAN_MOTION":"14.98334694","EPOCH":"2022-01-17T22:00:00.999936","NORAD_CAT_ID":"49144","DECAY_DATE":null,"PERIAPSIS":"569.739","BSTAR":"-0.00297020000000","SEMIMAJOR_AXIS":"6950.178","OBJECT_TYPE":"PAYLOAD"},{"PERIOD":"91.733","ELEMENT_SET_NO":"999","INCLINATION":"70.0010","SITE":"AFWTR","GP_ID":"194090696","TLE_LINE2":"2 49145  70.0010 133.2690 0003627 290.6774  92.0042 15.69769479  3687","REV_AT_EPOCH":"368","TLE_LINE1":"1 49145U 21082R   22017.91667824 -.00021579  00000-0 -17929-3 0  9998","MEAN_MOTION_DOT":"-0.00021579","MEAN_MOTION_DDOT":"0.0000000000000","OBJECT_ID":"2021-082R","EPHEMERIS_TYPE":"0","LAUNCH_DATE":"2021-09-14","MEAN_ELEMENT_THEORY":"SGP4","OBJECT_NAME":"STARLINK-3119","COUNTRY_CODE":"US","APOAPSIS":"362.002","REF_FRAME":"TEME","CLASSIFICATION_TYPE":"U","MEAN_ANOMALY":"92.0042","RCS_SIZE":"LARGE","TIME_SYSTEM":"UTC","MEAN_MOTION":"15.69769479","FILE":"3276075","CENTER_NAME":"EARTH","RA_OF_ASC_NODE":"133.2690","ARG_OF_PERICENTER":"290.6774","ECCENTRICITY":"0.00036270","PERIAPSIS":"357.115","OBJECT_TYPE":"PAYLOAD","SEMIMAJOR_AXIS":"6737.694","BSTAR":"-0.00017929000000","NORAD_CAT_ID":"49145","EPOCH":"2022-01-17T22:00:00.999936","DECAY_DATE":null},{"GP_ID":"194090445","TLE_LINE2":"2 49146  70.0000 133.2746 0003959 286.8842  93.7342 15.69752259  3689","PERIOD":"91.734","ELEMENT_SET_NO":"999","INCLINATION":"70.0000","SITE":"AFWTR","MEAN_MOTION_DOT":"-0.00020794","MEAN_MOTION_DDOT":"0.0000000000000","OBJECT_ID":"2021-082S","MEAN_ELEMENT_THEORY":"SGP4","LAUNCH_DATE":"2021-09-14","EPHEMERIS_TYPE":"0","TLE_LINE1":"1 49146U 21082S   22017.91667824 -.00020794  00000-0 -17279-3 0  9995","REV_AT_EPOCH":"368","COUNTRY_CODE":"US","OBJECT_NAME":"STARLINK-3116","REF_FRAME":"TEME","CLASSIFICATION_TYPE":"U","RCS_SIZE":"LARGE","MEAN_ANOMALY":"93.7342","APOAPSIS":"362.275","MEAN_MOTION":"15.69752259","FILE":"3276075","TIME_SYSTEM":"UTC","CENTER_NAME":"EARTH","ARG_OF_PERICENTER":"286.8842","RA_OF_ASC_NODE":"133.2746","ECCENTRICITY":"0.00039590","OBJECT_TYPE":"PAYLOAD","SEMIMAJOR_AXIS":"6737.743","BSTAR":"-0.00017279000000","PERIAPSIS":"356.940","DECAY_DATE":null,"EPOCH":"2022-01-17T22:00:00.999936","NORAD_CAT_ID":"49146"},{"PERIAPSIS":"356.937","BSTAR":"-0.00018006000000","OBJECT_TYPE":"PAYLOAD","SEMIMAJOR_AXIS":"6737.773","NORAD_CAT_ID":"49147","EPOCH":"2022-01-17T22:00:00.999936","DECAY_DATE":null,"TIME_SYSTEM":"UTC","FILE":"3276075","MEAN_MOTION":"15.69741826","ECCENTRICITY":"0.00040080","CENTER_NAME":"EARTH","RA_OF_ASC_NODE":"133.2770","ARG_OF_PERICENTER":"290.7124","OBJECT_NAME":"STARLINK-3071","COUNTRY_CODE":"US","APOAPSIS":"362.338","CLASSIFICATION_TYPE":"U","MEAN_ANOMALY":"85.6537","RCS_SIZE":"LARGE","REF_FRAME":"TEME","SITE":"AFWTR","PERIOD":"91.735","INCLINATION":"70.0006","ELEMENT_SET_NO":"999","GP_ID":"194089695","TLE_LINE2":"2 49147  70.0006 133.2770 0004008 290.7124  85.6537 15.69741826  3680","REV_AT_EPOCH":"368","TLE_LINE1":"1 49147U 21082T   22017.91667824 -.00021648  00000-0 -18006-3 0  9994","OBJECT_ID":"2021-082T","EPHEMERIS_TYPE":"0","LAUNCH_DATE":"2021-09-14","MEAN_ELEMENT_THEORY":"SGP4","MEAN_MOTION_DOT":"-0.00021648","MEAN_MOTION_DDOT":"0.0000000000000"},{"OBJECT_NAME":"STARLINK-3048","COUNTRY_CODE":"US","APOAPSIS":"362.211","CLASSIFICATION_TYPE":"U","MEAN_ANOMALY":"94.1588","RCS_SIZE":"LARGE","REF_FRAME":"TEME","SITE":"AFWTR","PERIOD":"91.734","ELEMENT_SET_NO":"999","INCLINATION":"69.9979","GP_ID":"194089945","TLE_LINE2":"2 49148  69.9979 133.2650 0003904 292.9026  94.1588 15.69761682  3686","TLE_LINE1":"1 49148U 21082U   22017.91667824 -.00019865  00000-0 -16491-3 0  9999","REV_AT_EPOCH":"368","OBJECT_ID":"2021-082U","MEAN_ELEMENT_THEORY":"SGP4","LAUNCH_DATE":"2021-09-14","EPHEMERIS_TYPE":"0","MEAN_MOTION_DOT":"-0.00019865","MEAN_MOTION_DDOT":"0.0000000000000","PERIAPSIS":"356.950","BSTAR":"-0.00016491000000","OBJECT_TYPE":"PAYLOAD","SEMIMAJOR_AXIS":"6737.716","NORAD_CAT_ID":"49148","EPOCH":"2022-01-17T22:00:00.999936","DECAY_DATE":null,"TIME_SYSTEM":"UTC","FILE":"3276075","MEAN_MOTION":"15.69761682","ECCENTRICITY":"0.00039040","CENTER_NAME":"EARTH","ARG_OF_PERICENTER":"292.9026","RA_OF_ASC_NODE":"133.2650"},{"GP_ID":"194090196","TLE_LINE2":"2 49149  69.9977 146.1787 0003612 284.9267  66.2882 14.98341389  3566","PERIOD":"96.106","ELEMENT_SET_NO":"999","INCLINATION":"69.9977","SITE":"AFWTR","MEAN_MOTION_DOT":"-0.00034491","MEAN_MOTION_DDOT":"0.0000000000000","OBJECT_ID":"2021-082V","MEAN_ELEMENT_THEORY":"SGP4","LAUNCH_DATE":"2021-09-14","EPHEMERIS_TYPE":"0","REV_AT_EPOCH":"356","TLE_LINE1":"1 49149U 21082V   22017.91667824 -.00034491  00000-0 -28961-2 0  9996","COUNTRY_CODE":"US","OBJECT_NAME":"STARLINK-3053","REF_FRAME":"TEME","CLASSIFICATION_TYPE":"U","RCS_SIZE":"LARGE","MEAN_ANOMALY":"66.2882","APOAPSIS":"574.533","MEAN_MOTION":"14.98341389","FILE":"3276075","TIME_SYSTEM":"UTC","CENTER_NAME":"EARTH","ARG_OF_PERICENTER":"284.9267","RA_OF_ASC_NODE":"146.1787","ECCENTRICITY":"0.00036120","OBJECT_TYPE":"PAYLOAD","SEMIMAJOR_AXIS":"6950.158","BSTAR":"-0.00289610000000","PERIAPSIS":"569.512","DECAY_DATE":null,"NORAD_CAT_ID":"49149","EPOCH":"2022-01-17T22:00:00.999936"},{"DECAY_DATE":null,"NORAD_CAT_ID":"49150","EPOCH":"2022-01-17T22:00:00.999936","BSTAR":"-0.00280320000000","OBJECT_TYPE":"PAYLOAD","SEMIMAJOR_AXIS":"6950.239","PERIAPSIS":"569.702","ECCENTRICITY":"0.00034560","CENTER_NAME":"EARTH","ARG_OF_PERICENTER":"286.1930","RA_OF_ASC_NODE":"146.1778","FILE":"3276075","MEAN_MOTION":"14.98315113","TIME_SYSTEM":"UTC","CLASSIFICATION_TYPE":"U","MEAN_ANOMALY":"90.7225","RCS_SIZE":"LARGE","REF_FRAME":"TEME","APOAPSIS":"574.506","COUNTRY_CODE":"US","OBJECT_NAME":"STARLINK-3104","OBJECT_ID":"2021-082W","LAUNCH_DATE":"2021-09-14","EPHEMERIS_TYPE":"0","MEAN_ELEMENT_THEORY":"SGP4","MEAN_MOTION_DOT":"-0.00033370","MEAN_MOTION_DDOT":"0.0000000000000","TLE_LINE1":"1 49150U 21082W   22017.91667824 -.00033370  00000-0 -28032-2 0  9992","REV_AT_EPOCH":"357","GP_ID":"194090946","TLE_LINE2":"2 49150  69.9969 146.1778 0003456 286.1930  90.7225 14.98315113  3576","SITE":"AFWTR","PERIOD":"96.108","ELEMENT_SET_NO":"999","INCLINATION":"69.9969"},{"GP_ID":"194089195","TLE_LINE2":"2 49151  69.9992 133.2576 0004166 290.8280  98.3279 15.69727494  3688","SITE":"AFWTR","ELEMENT_SET_NO":"999","PERIOD":"91.736","INCLINATION":"69.9992","OBJECT_ID":"2021-082X","LAUNCH_DATE":"2021-09-14","EPHEMERIS_TYPE":"0","MEAN_ELEMENT_THEORY":"SGP4","MEAN_MOTION_DOT":"-0.00020682","MEAN_MOTION_DDOT":"0.0000000000000","REV_AT_EPOCH":"368","TLE_LINE1":"1 49151U 21082X   22017.91667824 -.00020682  00000-0 -17202-3 0  9993","COUNTRY_CODE":"US","OBJECT_NAME":"STARLINK-3102","CLASSIFICATION_TYPE":"U","MEAN_ANOMALY":"98.3279","RCS_SIZE":"LARGE","REF_FRAME":"TEME","APOAPSIS":"362.486","FILE":"3276075","MEAN_MOTION":"15.69727494","TIME_SYSTEM":"UTC","ECCENTRICITY":"0.00041660","CENTER_NAME":"EARTH","ARG_OF_PERICENTER":"290.8280","RA_OF_ASC_NODE":"133.2576","BSTAR":"-0.00017202000000","OBJECT_TYPE":"PAYLOAD","SEMIMAJOR_AXIS":"6737.814","PERIAPSIS":"356.872","DECAY_DATE":null,"NORAD_CAT_ID":"49151","EPOCH":"2022-01-17T22:00:00.999936"}];
